[{"OBJECT_NAME":"SHIYAN-13 (SY-13)","OBJECT_ID":"2022-004A","EPOCH":"2026-03-09T23:59:10.497984","MEAN_MOTION":14.19820132,"ECCENTRICITY":0.06076023,"INCLINATION":98.4671,"RA_OF_ASC_NODE":92.2685,"ARG_OF_PERICENTER":122.0091,"MEAN_ANOMALY":244.1614,"EPHEMERIS_TYPE":0,"CLASSIFICATION_TYPE":"U","NORAD_CAT_ID":51102,"ELEMENT_SET_NO":999,"REV_AT_EPOCH":21321,"BSTAR":0.0002501462,"MEAN_MOTION_DOT":3.736e-5,"MEAN_MOTION_DDOT":0},{"OBJECT_NAME":"STARLINK-4553","OBJECT_ID":"2022-101BC","EPOCH":"2026-03-09T22:06:32.162976","MEAN_MOTION":15.08844733,"ECCENTRICITY":0.00017236,"INCLINATION":53.2165,"RA_OF_ASC_NODE":52.8317,"ARG_OF_PERICENTER":92.2851,"MEAN_ANOMALY":267.8339,"EPHEMERIS_TYPE":0,"CLASSIFICATION_TYPE":"U","NORAD_CAT_ID":53577,"ELEMENT_SET_NO":999,"REV_AT_EPOCH":19730,"BSTAR":2.7329927e-5,"MEAN_MOTION_DOT":1.47e-6,"MEAN_MOTION_DDOT":0}]
